NAVSTAR 55 (USA 178)
1 28361U 04023A   26118.53511146  .00000005  00000+0  00000+0 0  9996
2 28361  54.8312  88.7156 0160416 300.4177 242.8420  2.00554599160042
